[{
    "name": "CESL - Pallavaram Metro Charging Station",
    "address": "GST Road, Pallavaram",
    "status": "Open now",
    "opening_hours": "12:00 AM - 11:59 PM",
    "phone": "18008332233",
    "connectors": "CCS-II",
    "direction_img": "img",
    "get_direction": "Get Direction",
    "latitude": 12.9827,
    "longitude": 80.1742
  },
  {
    "name": "CESL - Thirisulam Metro Charging Station",
    "address": "GST Road, Thirisulam",
    "status": "Open now",
    "opening_hours": "12:00 AM - 11:59 PM",
    "phone": "18008332233",
    "connectors": "CCS-II",
    "direction_img": "img",
    "get_direction": "Get Direction",
    "latitude": 12.9867,
    "longitude": 80.1783
  },
  {
    "name": "CESL - Tirusulam Metro Charging Station",
    "address": "GST Road, Tirusulam",
    "status": "Open now",
    "opening_hours": "12:00 AM - 11:59 PM",
    "phone": "18008332233",
    "connectors": "CCS-II",
    "direction_img": "img",
    "get_direction": "Get Direction",
    "latitude": 12.9828,
    "longitude": 80.1817
  },
  {
    "name": "CESL - Nanganallur Road Metro Charging Station",
    "address": "GST Road, Nanganallur Road",
    "status": "Open now",
    "opening_hours": "12:00 AM - 11:59 PM",
    "phone": "18008332233",
    "connectors": "CCS-II",
    "direction_img": "img",
    "get_direction": "Get Direction",
    "latitude": 12.9814,
    "longitude": 80.1885
  },
  {
    "name": "CESL - Meenambakkam Metro Charging Station",
    "address": "GST Road, Meenambakkam",
    "status": "Open now",
    "opening_hours": "12:00 AM - 11:59 PM",
    "phone": "18008332233",
    "connectors": "CCS-II",
    "direction_img": "img",
    "get_direction": "Get Direction",
    "latitude": 12.9875,
    "longitude": 80.1642
  },
 {
    "name": "CESL - Aminjikarai Metro Charging Station",
    "address": "Jawaharlal Nehru Road, Aminjikarai",
    "status": "Open now",
    "opening_hours": "12:00 AM - 11:59 PM",
    "phone": "18008332233",
    "connectors": "CCS-II",
    "direction_img": "img",
    "get_direction": "Get Direction",
    "latitude": 13.0727,
    "longitude": 80.2245
  },
  {
    "name": "CESL - Vadapalani Metro Charging Station",
    "address": "Arcot Road, Vadapalani",
    "status": "Open now",
    "opening_hours": "12:00 AM - 11:59 PM",
    "phone": "18008332233",
    "connectors": "CCS-II",
    "direction_img": "img",
    "get_direction": "Get Direction",
    "latitude": 13.0507,
    "longitude": 80.2129
  },
  {
    "name": "CESL - CMBT Metro Charging Station",
    "address": "100 Feet Inner Ring Road, Arumbakkam",
    "status": "Open now",
    "opening_hours": "12:00 AM - 11:59 PM",
    "phone": "18008332233",
    "connectors": "CCS-II",
    "direction_img": "img",
    "get_direction": "Get Direction",
    "latitude": 13.0738,
    "longitude": 80.1983
  },
  {
    "name": "CESL - Koyambedu Metro Charging Station",
    "address": "Inner Ring Road, Koyambedu",
    "status": "Open now",
    "opening_hours": "12:00 AM - 11:59 PM",
    "phone": "18008332233",
    "connectors": "CCS-II",
    "direction_img": "img",
    "get_direction": "Get Direction",
    "latitude": 13.0723,
    "longitude": 80.1959
  },
  {
    "name": "CESL - Alandur Metro Charging Station",
    "address": "Grand Southern Trunk Road, St Thomas Mount",
    "status": "Open now",
    "opening_hours": "12:00 AM - 11:59 PM",
    "phone": "18008332233",
    "connectors": "CCS-II",
    "direction_img": "img",
    "get_direction": "Get Direction",
    "latitude": 13.0049,
    "longitude": 80.1996
  },
  {
    "name": "CESL - Airport Metro Charging Station",
    "address": "GST Road, Airport Cargo Terminal",
    "status": "Open now",
    "opening_hours": "12:00 AM - 11:59 PM",
    "phone": "18008332233",
    "connectors": "CCS-II",
    "direction_img": "img",
    "get_direction": "Get Direction",
    "latitude": 12.9826,
    "longitude": 80.1662
  },
  {
    "name": "Tata Power - Fairfield - by Marriott Charging Station",
    "address": "Near Main Entrance, Mahindra World City",
    "status": "Open now",
    "opening_hours": "12:00 AM - 11:59 PM",
    "phone": "18008332233",
    "connectors": "CCS-IICHAdeMOAC TYPE 2",
    "direction_img": "img",
    "get_direction": "Get Direction",
    "latitude": 12.8325,
    "longitude": 80.0408
  },
  {
    "name": "Tata Power - Four Points by Sheraton Charging Station",
    "address": "Survey No 169, Plot 1B And 1A, Rajiv Gandhi Salai, Kumaran Nagar, Sholinganallur",
    "status": "Open now",
    "opening_hours": "12:00 AM - 11:59 PM",
    "phone": "18008332233",
    "connectors": "CCS-IICHAdeMOAC TYPE 2",
    "direction_img": "img",
    "get_direction": "Get Direction",
    "latitude": 12.8929,
    "longitude": 80.2242
  },
  {
    "name": "Tata Power - Hotels Pumpkin Tales Alwarpet (Private - Charger)",
    "address": "37, 20, Bheemanna Garden St, Alwarpet",
    "status": "Open now",
    "opening_hours": "12:00 AM - 11:59 PM",
    "phone": "9742211172",
    "connectors": "CCS-IICHAdeMO",
    "direction_img": "img",
    "get_direction": "Get Direction",
    "latitude": 13.0364,
    "longitude": 80.2531
  },
  {
    "name": "MEENAMBAKKAM Charging Station",
    "address": "Great Southern Trunk Road, National Airports Authority Colony, Meenambakkam",
    "status": "Closed now",
    "opening_hours": "10:00 AM - 07:00 PM",
    "phone": "9841824572",
    "connectors": "CCS-II",
    "direction_img": "img",
    "get_direction": "Get Direction",
    "latitude": 12.9864,
    "longitude": 80.1685
  },
  {
    "name": "CESL - Nandanam Metro Charging Station",
    "address": "Rathna Nagar, Alwarpet",
    "status": "Open now",
    "opening_hours": "12:00 AM - 11:59 PM",
    "phone": "18008332233",
    "connectors": "CCS-II",
    "direction_img": "img",
    "get_direction": "Get Direction",
    "latitude": 13.0284,
    "longitude": 80.2457
  },
 {
    "name": "Hotel Vadapalani (Private - Charger)",
    "address": "61 Inner Ring Rd Thiru Nagar Colony NGO Colony",
    "status": "Open now",
    "opening_hours": "12:00 AM - 11:59 PM",
    "phone": "9742211172",
    "connectors": "CCS-IICHAdeMO",
    "direction_img": "img",
    "get_direction": "Get Direction",
    "latitude": 13.0508,
    "longitude": 80.2117
  },
  {
    "name": "Tata Power - Gurudev Charging Station",
    "address": "Old No. 90, New No. 1090, E.V.R. Periyar High Road",
    "status": "Open now",
    "opening_hours": "12:00 AM - 11:59 PM",
    "phone": "9742211172",
    "connectors": "CCS-IICHAdeMO",
    "direction_img": "img",
    "get_direction": "Get Direction",
    "latitude": 13.0718,
    "longitude": 80.2379
  },
  {
    "name": "Fairfield - By Marriott Charging station",
    "address": "Central Ave, Mahendra Word City, Maraimala Nagar, Cheeni",
    "status": "Open now",
    "opening_hours": "12:00 AM - 12:00 PM",
    "phone": "8527000290",
    "connectors": "CCS-IIAC PLUG POINTCHAdeMO",
    "direction_img": "img",
    "get_direction": "Get Direction",
    "latitude": 12.8322,
    "longitude": 80.0408
  },
{
    "name": "Zulaikha Motors Charging Station",
    "address": "10/8 3rd Main Road Below Telephone Exchange Bridge Sai Nagar Ambattur Industrial Estate",
    "status": "Closed now",
    "opening_hours": "10:00 AM - 07:00 PM",
    "phone": "9742211172",
    "connectors": "CCS-IICHAdeMOSocket3PIN",
    "direction_img": "img",
    "get_direction": "Get Direction",
    "latitude": 13.0972,
    "longitude": 80.1636
  },
  {
    "name": "Diselecti Automotive Pvt Ltd",
    "address": "60/2 61/2 East Coast Road Chettiyar Agaram",
    "status": "Closed now",
    "opening_hours": "10:00 AM - 07:00 PM",
    "phone": "9884866993",
    "connectors": "AC TYPE 2",
    "direction_img": "img",
    "get_direction": "Get Direction",
    "latitude": 12.9176,
    "longitude": 80.2532
  },
  {
    "name": "Tata Power - FPL Vehicles Charging Station",
    "address": "No. 824 Annasali Nandnam Charging Station",
    "status": "Open now",
    "opening_hours": "12:00 AM - 11:59 PM",
    "phone": "18008332233",
    "connectors": "CCS-II",
    "direction_img": "img",
    "get_direction": "Get Direction",
    "latitude": 13.0229,
    "longitude": 80.2093
  },
  {
    "name": "COC - Koyambedu Charging Station",
    "address": "Station, Kaliamman Main Road, Koyembedu",
    "status": "Open now",
    "opening_hours": "12:00 AM - 11:59 PM",
    "connectors": "CCS-II",
    "direction_img": "img",
    "get_direction": "Get Direction",
    "latitude": 13.0733,
    "longitude": 80.1939
  },
  {
    "name": "Kazam - Sait Colony Charging Station",
    "address": "26,Sait Colony 1st Street, Egmore",
    "status": "Open now",
    "opening_hours": "12:00 AM - 11:59 PM",
    "phone": "9789514174",
    "connectors": "Bharat AC001",
    "direction_img": "img",
    "get_direction": "Get Direction",
    "latitude": 13.0721,
    "longitude": 80.2563
  }]